SENTINEL-5P             
1 42969U 17064A   26188.29036814  .00000042  00000+0  40959-4 0  9992
2 42969  98.7927 130.2790 0001108  92.5300 267.6003 14.19522407452410
